"spkid","full_name","pdes","name","pha","H","G","diameter","albedo","rot_per","epoch_mjd","e","a","q","i","om","w","ma","ad","moid","moid_jup","t_jup","class"
3843577,"       (2019 QT)","2019 QT",,Y,21.20,,,,,59800,0.8289,2.222,0.380,4.43,236.56,214.96,301.21,4.06,0.0425,1.2,3.07,APO
3843585,"       (2019 QU)","2019 QU",,N,25.10,,,,,58719,0.5293,2.225,1.047,14.98,327.10,342.81,5.63,3.40,0.048,1.93,3.41,AMO
3843586,"       (2019 QV)","2019 QV",,N,22.50,,,,,59800,0.5107,1.97,0.964,8.88,166.69,228.42,2.93,2.98,0.0431,2.5,3.69,APO
3843587,"       (2019 QW)","2019 QW",,N,22.70,,,,,58718,0.2283,1.444,1.115,24.32,327.39,34.14,339.25,1.77,0.136,3.68,4.54,AMO
3843589,"       (2019 QX)","2019 QX",,Y,19.74,,,,,59800,0.6290,2.155,0.800,27.15,316.64,119.04,311.46,3.51,0.00998,2.37,3.31,APO
3843588,"       (2019 QY)","2019 QY",,N,21.13,,,,,59800,0.5310,2.022,0.949,10.20,269.25,5.23,22.64,3.10,0.0627,2.05,3.61,APO
3843591,"       (2019 QZ)","2019 QZ",,N,26.00,,,,,59800,0.2772,1.418,1.025,1.27,349.64,16.71,251.45,1.81,0.0232,3.65,4.67,AMO
3843590,"       (2019 QA1)","2019 QA1",,N,25.20,,,,,58718,0.5018,2.157,1.075,6.35,322.06,5.78,0.14,3.24,0.0632,2.13,3.52,AMO
3843592,"       (2019 QB1)","2019 QB1",,N,27.50,,,,,59800,0.5613,2.078,0.912,2.68,327.10,316.16,8.03,3.24,0.000231,1.94,3.55,APO
3843594,"       (2019 QC1)","2019 QC1",,N,20.57,,,,,59800,0.4933,2.411,1.222,21.39,177.84,151.63,284.01,3.60,0.246,1.95,3.26,AMO
3843596,"       (2019 QD1)","2019 QD1",,N,26.60,,,,,59800,0.3147,1.429,0.979,8.41,147.07,139.39,287.04,1.88,0.0178,3.3,4.63,APO
3843593,"       (2019 QE1)","2019 QE1",,N,25.20,,,,,58719,0.3711,1.566,0.985,5.14,323.61,49.86,340.04,2.15,0.0335,3.33,4.34,APO
3843595,"       (2019 QH1)","2019 QH1",,N,21.10,,,,,58716,0.3271,1.329,0.894,13.12,220.39,14.80,42.13,1.76,0.0961,3.24,4.84,APO
3843597,"       (2019 QJ1)","2019 QJ1",,N,20.50,,,,,59800,0.4678,2.236,1.190,21.39,158.53,248.93,282.90,3.28,0.348,2.53,3.41,AMO
3843598,"       (2019 QK1)","2019 QK1",,N,26.90,,,,,58717,0.5620,2.341,1.025,5.46,148.99,186.77,358.34,3.66,0.016,1.74,3.33,AMO
3843599,"       (2019 QL1)","2019 QL1",,N,22.98,,,,,59800,0.4337,2.206,1.249,3.00,355.55,346.98,321.65,3.16,0.241,2.26,3.53,AMO
3843600,"       (2019 QN1)","2019 QN1",,N,23.70,,,,,59800,0.5527,2.611,1.168,7.41,315.16,41.10,245.35,4.05,0.182,1.48,3.16,AMO
3843601,"       (2019 QO1)","2019 QO1",,N,24.10,,,,,59800,0.4562,2.104,1.144,3.54,273.51,66.16,346.19,3.06,0.147,2.36,3.6,AMO
3843602,"       (2019 QP1)","2019 QP1",,N,26.50,,,,,58719,0.4027,1.559,0.931,6.84,325.97,57.72,337.12,2.19,0.0269,3.3,4.33,APO
3843603,"       (2019 QQ1)","2019 QQ1",,N,20.70,,,,,59800,0.0637,1.366,1.279,30.89,315.80,161.67,157.93,1.45,0.298,3.6,4.69,AMO
3843605,"       (2019 QR1)","2019 QR1",,N,24.50,,,,,58720,0.0326,1.101,1.065,24.59,331.90,357.57,2.01,1.14,0.0543,3.92,5.56,AMO
3843604,"       (2019 QS1)","2019 QS1",,N,23.00,,,,,59800,0.5681,2.356,1.018,8.52,209.49,97.15,299.79,3.69,0.136,1.74,3.3,AMO
3843611,"       (2019 QU1)","2019 QU1",,N,23.80,,,,,59800,0.2808,0.8913,0.641,23.09,335.91,151.90,49.48,1.14,0.074,3.9,6.57,ATE
3843607,"       (2019 QV1)","2019 QV1",,N,24.70,,,,,58719,0.0501,1.075,1.021,27.60,149.15,44.61,131.98,1.13,0.0468,3.87,5.64,AMO
3843610,"       (2019 QW1)","2019 QW1",,N,22.40,,,,,59800,0.7971,2.218,0.450,7.41,136.51,302.28,306.65,3.99,0.0396,1.39,3.13,APO
3843606,"       (2019 QX1)","2019 QX1",,N,25.30,,,,,58720,0.6808,2.46,0.785,11.82,147.09,257.01,346.85,4.13,0.046,1.55,3.1,APO
3843612,"       (2019 QY1)","2019 QY1",,Y,20.80,,,,,59800,0.4701,1.747,0.926,27.41,236.06,156.80,73.61,2.57,0.0356,2.93,3.89,APO
3843608,"       (2019 QZ1)","2019 QZ1",,N,23.30,,,,,59800,0.5614,2.21,0.970,0.73,346.72,6.90,316.48,3.45,0.00466,2,3.43,APO
3843840,"       (A/2019 Q2)","2019 Q2",,N,18.17,,,,,58729,0.9789,59.68,1.258,159.03,187.95,176.27,0.09,118.11,0.258,1.48,-1.21,AMO
3843609,"       (2019 QA2)","2019 QA2",,N,22.90,,,,,59800,0.5217,2.674,1.279,11.92,160.96,192.71,236.33,4.07,0.276,1.38,3.14,AMO
3843613,"       (2019 QB2)","2019 QB2",,N,23.00,,,,,59800,0.4311,1.655,0.942,6.90,148.35,255.52,112.18,2.37,0.0687,3.07,4.15,APO
3843614,"       (2019 QC2)","2019 QC2",,N,25.50,,,,,58721,0.3453,1.672,1.095,12.27,332.27,8.11,355.60,2.25,0.0863,3.15,4.15,AMO
3843615,"       (2019 QD2)","2019 QD2",,Y,21.60,,,,,59800,0.4603,1.804,0.974,11.97,271.69,18.32,91.78,2.63,0.0238,2.57,3.91,APO
3843616,"       (2019 QF2)","2019 QF2",,N,22.60,,,,,59800,0.4650,1.746,0.934,1.52,307.28,97.69,70.45,2.56,0.0198,2.86,4.01,APO
3843617,"       (2019 QH2)","2019 QH2",,N,30.40,,,,,58717,0.5044,1.598,0.792,0.61,326.61,291.14,24.12,2.40,7.52e-05,2.67,4.21,APO
3843618,"       (2019 QP2)","2019 QP2",,N,24.70,,,,,58721,0.5685,1.483,0.640,0.73,213.82,24.50,30.51,2.33,0.0113,2.69,4.39,APO
3843621,"       (2019 QS2)","2019 QS2",,N,20.50,,,,,58717,0.7397,2.708,0.705,22.90,184.22,235.04,350.06,4.71,0.0956,1.57,2.82,APO
3843620,"       (2019 QT2)","2019 QT2",,N,24.00,,,,,59800,0.5675,1.805,0.781,12.69,160.98,255.63,52.05,2.83,0.0276,2.67,3.83,APO
3843622,"       (2019 QU2)","2019 QU2",,N,22.16,,,,,59800,0.7047,0.8238,0.243,11.33,145.73,355.83,229.67,1.40,0.0961,3.63,6.87,ATE
3843623,"       (2019 QW2)","2019 QW2",,N,24.80,,,,,59800,0.1128,0.9658,0.857,6.53,291.65,269.07,160.16,1.07,0.0215,3.89,6.24,ATE
3843625,"       (2019 QD3)","2019 QD3",,N,22.50,,,,,59800,0.4828,2.273,1.175,9.14,173.86,169.32,308.69,3.37,0.17,2.07,3.43,AMO
3843632,"       (2019 QP3)","2019 QP3",,N,24.60,,,,,58719,0.0443,1.092,1.043,21.47,329.23,70.72,297.17,1.14,0.0622,3.93,5.62,AMO
3843633,"       (2019 QQ3)","2019 QQ3",,N,29.30,,,,,59800,0.6645,1.976,0.663,7.26,332.77,277.85,39.63,3.29,0.00025,1.85,3.55,APO
3843630,"       (2019 QR3)","2019 QR3",,N,27.20,,,,,58724,0.4328,1.542,0.874,9.10,158.37,235.48,336.92,2.21,0.00158,3.25,4.34,APO
3843628,"       (2019 QS3)","2019 QS3",,N,21.20,,,,,59800,0.7743,5.689,1.284,13.58,252.39,75.41,79.37,10.09,0.372,0.63,2.2,AMO
3843629,"       (2019 QT3)","2019 QT3",,N,23.60,,,,,58722,0.5917,2.563,1.046,1.53,234.09,89.45,2.68,4.08,0.0434,1.3,3.16,AMO
3843627,"       (2019 QU3)","2019 QU3",,N,28.70,,,,,59800,0.4593,1.869,1.011,0.54,310.91,11.99,59.21,2.73,0.000513,2.62,3.85,APO
3843626,"       (2019 QV3)","2019 QV3",,N,21.50,,,,,59800,0.6073,2.828,1.111,1.28,354.89,49.23,204.13,4.54,0.121,0.898,3.01,AMO
3843631,"       (2019 QW3)","2019 QW3",,N,21.50,,,,,59800,0.2866,1.526,1.088,15.19,347.09,346.11,206.76,1.96,0.0862,3.42,4.41,AMO
3843634,"       (2019 QX3)","2019 QX3",,N,25.20,,,,,58721,0.6699,1.976,0.652,1.34,136.20,286.25,339.99,3.30,0.00303,2.06,3.55,APO
3843635,"       (2019 QY3)","2019 QY3",,N,24.50,,,,,59800,0.5410,2.149,0.986,1.43,281.19,107.55,321.37,3.31,0.0217,2.15,3.5,APO
3843636,"       (2019 QZ3)","2019 QZ3",,N,24.80,,,,,59800,0.1891,1.2,0.973,11.58,165.35,228.00,46.27,1.43,0.0175,3.94,5.26,APO
3843638,"       (2019 QC4)","2019 QC4",,N,23.50,,,,,59800,0.3795,0.7911,0.491,3.87,140.75,40.72,200.40,1.09,0.0129,3.86,7.3,ATE
3843637,"       (2019 QD4)","2019 QD4",,N,26.00,,,,,58724,0.5612,1.286,0.565,29.16,157.47,284.68,319.97,2.01,0.011,3.55,4.76,APO
3843639,"       (2019 QE4)","2019 QE4",,N,24.30,,,,,58723,0.3395,1.253,0.828,13.20,326.23,284.20,49.60,1.68,0.00668,3.43,5.05,APO
3843640,"       (2019 QH4)","2019 QH4",,N,24.60,,,,,58726,0.4506,1.516,0.833,3.62,220.39,38.47,34.14,2.20,0.0258,2.88,4.39,APO
3843642,"       (2019 QJ4)","2019 QJ4",,N,25.20,,,,,59800,0.1902,1.03,0.834,9.08,338.13,249.49,20.27,1.23,0.0326,3.76,5.91,APO
3843641,"       (2019 QK4)","2019 QK4",,N,20.80,,,,,59800,0.8870,2.553,0.289,20.36,308.40,170.10,244.06,4.82,0.266,0.381,2.65,APO
3843643,"       (2019 QL4)","2019 QL4",,N,23.20,,,,,59800,0.4669,2.03,1.082,6.95,337.81,335.16,13.25,2.98,0.0815,2.34,3.66,AMO
3843644,"       (2019 QT4)","2019 QT4",,N,21.10,,,,,59800,0.6536,2.194,0.760,6.62,96.32,163.03,344.09,3.63,0.0895,1.46,3.35,APO
3843645,"       (2019 QU4)","2019 QU4",,N,24.80,,,,,59800,0.3322,1.426,0.953,10.13,333.97,44.08,240.94,1.90,0.0103,3.59,4.62,APO
3843646,"       (2019 QV4)","2019 QV4",,N,24.30,,,,,59800,0.3385,1.565,1.035,13.37,334.63,1.66,180.98,2.09,0.0251,3.29,4.33,AMO
3843647,"       (2019 QW4)","2019 QW4",,N,24.60,,,,,59800,0.4043,1.778,1.059,6.00,331.11,357.45,89.54,2.50,0.0477,2.87,3.99,AMO
3843648,"       (2019 QX4)","2019 QX4",,N,25.00,,,,,58724,0.4836,2.163,1.117,0.75,323.96,356.40,3.62,3.21,0.104,2.13,3.53,AMO
3843671,"       (2019 QY4)","2019 QY4",,N,27.60,,,,,59800,0.3575,1.425,0.916,0.56,325.36,71.28,232.79,1.93,0.00373,3.5,4.63,APO
3843672,"       (2019 QZ4)","2019 QZ4",,N,23.40,,,,,58726,0.5594,1.023,0.451,5.61,185.12,24.00,70.92,1.59,0.0536,3.37,5.82,APO
3843674,"       (2019 QA5)","2019 QA5",,N,26.00,,,,,58724,0.5685,1.888,0.815,6.47,153.99,246.42,342.15,2.96,0.0082,2.49,3.74,APO
3843675,"       (2019 QB5)","2019 QB5",,N,20.40,,,,,59800,0.8297,1.941,0.331,42.21,189.49,34.27,58.60,3.55,0.293,1.94,3.19,APO
3843676,"       (2019 QM5)","2019 QM5",,N,21.60,,,,,59800,0.6470,1.48,0.523,7.25,226.23,226.18,189.47,2.44,0.0653,2.81,4.32,APO
3843677,"       (2019 QN5)","2019 QN5",,N,24.30,,,,,58723,0.4285,2.177,1.244,7.48,331.32,354.02,2.86,3.11,0.232,2.25,3.55,AMO
3843679,"       (2019 QO5)","2019 QO5",,N,23.80,,,,,58727,0.5957,2.532,1.023,10.30,179.03,198.21,351.72,4.04,0.0349,1.43,3.16,AMO
3843678,"       (2019 QP5)","2019 QP5",,N,25.00,,,,,58725,0.3189,1.596,1.087,10.88,173.14,199.92,342.38,2.10,0.0932,3.36,4.29,AMO
3843680,"       (2019 QR5)","2019 QR5",,N,23.10,,,,,58724,0.4584,2.091,1.133,6.37,282.62,17.74,11.39,3.05,0.121,2.21,3.61,AMO
3843681,"       (2019 QS5)","2019 QS5",,N,23.10,,,,,58724,0.1337,1.394,1.207,18.24,333.81,301.75,45.72,1.58,0.251,3.59,4.71,AMO
3843682,"       (2019 QT5)","2019 QT5",,N,23.90,,,,,59800,0.2067,1.42,1.127,21.20,346.32,1.26,259.06,1.71,0.12,3.7,4.62,AMO
3843683,"       (2019 QV5)","2019 QV5",,N,20.10,,,,,59800,0.4612,2.32,1.250,6.66,87.60,328.05,279.94,3.39,0.271,2,3.42,AMO
3843684,"       (2019 QX5)","2019 QX5",,N,23.60,,,,,58728,0.4953,1.65,0.833,1.94,211.34,56.61,27.54,2.47,0.00274,2.65,4.13,APO
